{
    "links": {
        "self": "http://www.neowsapp.com/rest/v1/neo/3695296?api_key=iIulBulltgU6a56xZRHN4H3l9WmuAYTsLGpBGhQ2"
    },
    "id": "3695296",
    "neo_reference_id": "3695296",
    "name": "(2014 UM175)",
    "designation": "2014 UM175",
    "nasa_jpl_url": "http://ssd.jpl.nasa.gov/sbdb.cgi?sstr=3695296",
    "absolute_magnitude_h": 23.6,
    "estimated_diameter": {
        "kilometers": {
            "estimated_diameter_min": 0.0506471459,
            "estimated_diameter_max": 0.1132504611
        },
        "meters": {
            "estimated_diameter_min": 50.6471458835,
            "estimated_diameter_max": 113.2504610618
        },
        "miles": {
            "estimated_diameter_min": 0.0314706677,
            "estimated_diameter_max": 0.0703705522
        },
        "feet": {
            "estimated_diameter_min": 166.1651821003,
            "estimated_diameter_max": 371.5566426699
        }
    },
    "is_potentially_hazardous_asteroid": false,
    "close_approach_data": [
        {
            "close_approach_date": "2014-10-17",
            "close_approach_date_full": "2014-Oct-17 01:26",
            "epoch_date_close_approach": 1413509160000,
            "relative_velocity": {
                "kilometers_per_second": "10.3540105588",
                "kilometers_per_hour": "37274.4380117491",
                "miles_per_hour": "23160.8862190227"
            },
            "miss_distance": {
                "astronomical": "0.0786822587",
                "lunar": "30.6073986343",
                "kilometers": "11770698.308308969",
                "miles": "7313972.7753590122"
            },
            "orbiting_body": "Earth"
        }
    ],
    "orbital_data": {
        "orbit_id": "10",
        "orbit_determination_date": "2017-04-06 08:37:43",
        "first_observation_date": "2014-10-29",
        "last_observation_date": "2014-11-19",
        "data_arc_in_days": 21,
        "observations_used": 45,
        "orbit_uncertainty": "7",
        "minimum_orbit_intersection": ".0778961",
        "jupiter_tisserand_invariant": "4.094",
        "epoch_osculation": "2459000.5",
        "eccentricity": ".4230109060456692",
        "semi_major_axis": "1.685758627154281",
        "inclination": "12.5377654898188",
        "ascending_node_longitude": "219.1096269322541",
        "orbital_period": "799.4503799633479",
        "perihelion_distance": ".9726643429074451",
        "perihelion_argument": "124.2004420735325",
        "aphelion_distance": "2.398852911401117",
        "perihelion_time": "2459311.659643332717",
        "mean_anomaly": "219.8818958533563",
        "mean_motion": ".4503093738181784",
        "equinox": "J2000",
        "orbit_class": {
            "orbit_class_type": "APO",
            "orbit_class_description": "Near-Earth asteroid orbits which cross the Earth’s orbit similar to that of 1862 Apollo",
            "orbit_class_range": "a (semi-major axis) > 1.0 AU; q (perihelion) < 1.017 AU"
        }
    },
    "is_sentry_object": false
}